[Satellite]
VERSION=1.1
NAME=COSMO-SKYMED 3
NICKNAME=COSMO-SKYMED 3
TLE1=1 33412U 08054A   15055.51755446  .00000173  00000-0  28298-4 0  9997
TLE2=2 33412  97.8810 241.1343 0001297  83.0017 277.1344 14.82156653342686
